QIANFAN-25              
1 61558U 24185G   25250.91935480  .00000528  00000+0  31526-3 0  9992
2 61558  88.9739  89.0447 0006621 230.6616 129.3980 14.05781976 56047
QIANFAN-26              
1 61559U 24185H   25250.95585556  .00000268  00000+0  25534-3 0  9995
2 61559  88.9750  90.0999 0004222 317.7960  42.2881 13.77736118 55485
QIANFAN-27              
1 61560U 24185J   25250.90801182  .00000554  00000+0  22107-3 0  9999
2 61560  88.9744  88.1903 0006065 235.7931 124.2689 14.27156142 56495
QIANFAN-28              
1 61561U 24185K   25250.93323388  .00000931  00000+0  37140-3 0  9992
2 61561  88.9760  88.1835 0005167 235.7653 124.3052 14.27741593 56508
QIANFAN-29              
1 61562U 24185L   25250.90018089  .00000193  00000+0  28072-3 0  9993
2 61562  88.9728  91.2252 0009420 339.1948  20.8818 13.50963154 54853
QIANFAN-30              
1 61563U 24185M   25250.95074701  .00000189  00000+0  27868-3 0  9999
2 61563  88.9747  90.7085 0006429 325.5184  34.5549 13.49941032 55145
QIANFAN-31              
1 61564U 24185N   25250.89176010  .00000185  00000+0  24025-3 0  9997
2 61564  88.9732  90.6684 0006003 324.2015  35.8737 13.57913479 55158
QIANFAN-32              
1 61565U 24185P   25250.89823664  .00000185  00000+0  26969-3 0  9991
2 61565  88.9790  90.8192 0009026 350.6082   9.4899 13.50693626 55107
